{
    "links": {
        "self": "http://www.neowsapp.com/rest/v1/neo/54098022?api_key=iIulBulltgU6a56xZRHN4H3l9WmuAYTsLGpBGhQ2"
    },
    "id": "54098022",
    "neo_reference_id": "54098022",
    "name": "(2020 XN1)",
    "designation": "2020 XN1",
    "nasa_jpl_url": "http://ssd.jpl.nasa.gov/sbdb.cgi?sstr=54098022",
    "absolute_magnitude_h": 19.912,
    "estimated_diameter": {
        "kilometers": {
            "estimated_diameter_min": 0.2767929196,
            "estimated_diameter_max": 0.6189277839
        },
        "meters": {
            "estimated_diameter_min": 276.7929195943,
            "estimated_diameter_max": 618.9277839034
        },
        "miles": {
            "estimated_diameter_min": 0.1719910932,
            "estimated_diameter_max": 0.384583776
        },
        "feet": {
            "estimated_diameter_min": 908.1132823216,
            "estimated_diameter_max": 2030.6030305416
        }
    },
    "is_potentially_hazardous_asteroid": false,
    "close_approach_data": [
        {
            "close_approach_date": "2020-12-26",
            "close_approach_date_full": "2020-Dec-26 21:17",
            "epoch_date_close_approach": 1609017420000,
            "relative_velocity": {
                "kilometers_per_second": "19.1514389306",
                "kilometers_per_hour": "68945.1801500556",
                "miles_per_hour": "42839.8537437943"
            },
            "miss_distance": {
                "astronomical": "0.3736072098",
                "lunar": "145.3332046122",
                "kilometers": "55890842.802723126",
                "miles": "34728959.3143700988"
            },
            "orbiting_body": "Earth"
        }
    ],
    "orbital_data": {
        "orbit_id": "1",
        "orbit_determination_date": "2020-12-07 23:12:03",
        "first_observation_date": "2020-11-18",
        "last_observation_date": "2020-12-08",
        "data_arc_in_days": 20,
        "observations_used": 18,
        "orbit_uncertainty": "9",
        "minimum_orbit_intersection": ".340425",
        "jupiter_tisserand_invariant": "3.003",
        "epoch_osculation": "2459184.5",
        "eccentricity": ".5166757293402052",
        "semi_major_axis": "2.553353066678028",
        "inclination": "36.42035062211387",
        "ascending_node_longitude": "85.90643203536513",
        "orbital_period": "1490.269227654934",
        "perihelion_distance": "1.234097508689108",
        "perihelion_argument": "42.38227564573257",
        "aphelion_distance": "3.872608624666948",
        "perihelion_time": "2459256.166681287034",
        "mean_anomaly": "342.6876883823665",
        "mean_motion": ".2415670895697758",
        "equinox": "J2000",
        "orbit_class": {
            "orbit_class_type": "AMO",
            "orbit_class_description": "Near-Earth asteroid orbits similar to that of 1221 Amor",
            "orbit_class_range": "1.017 AU < q (perihelion) < 1.3 AU"
        }
    },
    "is_sentry_object": false
}